H1 CPF 01  gfz 2022 07 27 00  7081 terrasarx 
H2 0702601  6201 31698    2022 07 27 00 59 42 2022 08 01 00 00 42   120 1 1  0 0 0
H9
10 0 59789  29502.000000  0    1435030.124    127758.710   6725526.323
10 0 59789  29622.000000  0    2165629.178   -391918.479   6516984.071
10 0 59789  29742.000000  0    2849295.342   -917133.064   6193908.377
10 0 59789  29862.000000  0    3474074.198  -1437788.649   5761944.234
10 0 59789  29982.000000  0    4029206.860  -1943662.615   5228648.884
10 0 59789  30102.000000  0    4505319.414  -2424606.752   4603364.894
10 0 59789  30222.000000  0    4894587.487  -2870751.652   3897062.976
10 0 59789  30342.000000  0    5190873.039  -3272711.411   3122153.345
10 0 59789  30462.000000  0    5389828.295  -3621782.361   2292267.237
10 0 59789  30582.000000  0    5488963.101  -3910131.680   1422014.656
10 0 59789  30702.000000  0    5487675.906  -4130972.236    526722.429
10 0 59789  30822.000000  0    5387246.628  -4278717.250   -377842.955
10 0 59789  30942.000000  0    5190791.572  -4349112.530  -1275761.798
10 0 59789  31062.000000  0    4903180.739  -4339340.980  -2151250.444
10 0 59789  31182.000000  0    4530920.055  -4248097.644  -2988946.278
10 0 59789  31302.000000  0    4082002.358  -4075633.914  -3774182.046
10 0 59789  31422.000000  0    3565730.958  -3823769.547  -4493244.201
10 0 59789  31542.000000  0    2992521.129  -3495873.558  -5133609.826
10 0 59789  31662.000000  0    2373684.474  -3096814.710  -5684158.219
10 0 59789  31782.000000  0    1721202.677  -2632884.291  -6135353.541
10 0 59789  31902.000000  0    1047495.126  -2111693.607  -6479400.231
10 0 59789  32022.000000  0     365182.711  -1542045.371  -6710368.015
10 0 59789  32142.000000  0    -313145.887   -933783.405  -6824283.246
10 0 59789  32262.000000  0    -975161.201   -297624.137  -6819188.759
10 0 59789  32382.000000  0   -1609011.584    355028.134  -6695173.544
10 0 59789  32502.000000  0   -2203530.623   1012280.476  -6454370.715
10 0 59789  32622.000000  0   -2748429.286   1661962.533  -6100924.805
10 0 59789  32742.000000  0   -3234471.457   2291846.431  -5640928.461
10 0 59789  32862.000000  0   -3653631.397   2889873.698  -5082329.059
10 0 59789  32982.000000  0   -3999230.668   3444385.473  -4434802.961
10 0 59789  33102.000000  0   -4266049.997   3944350.871  -3709597.530
10 0 59789  33222.000000  0   -4450412.806   4379589.217  -2919344.668
10 0 59789  33342.000000  0   -4550240.873   4740981.905  -2077847.447
10 0 59789  33462.000000  0   -4565079.125   5020667.668  -1199841.853
10 0 59789  33582.000000  0   -4496089.256   5212217.997   -300737.812
10 0 59789  33702.000000  0   -4346009.084   5310786.129    603657.506
10 0 59789  33822.000000  0   -4119080.134   5313225.212   1497424.343
10 0 59789  33942.000000  0   -3820944.735   5218173.161   2364821.310
10 0 59789  34062.000000  0   -3458513.324   5026099.355   3190572.116
10 0 59789  34182.000000  0   -3039806.752   4739314.631   3960141.217
10 0 59789  34302.000000  0   -2573779.383   4361944.858   4659993.965
10 0 59789  34422.000000  0   -2070125.970   3899867.837   5277836.836
10 0 59789  34542.000000  0   -1539077.756   3360615.251   5802832.567
10 0 59789  34662.000000  0    -991192.115   2753242.738   6225786.330
10 0 59789  34782.000000  0    -437141.411   2088171.035   6539300.280
10 0 59789  34902.000000  0     112494.139   1377003.518   6737896.325
10 0 59789  35022.000000  0     647428.183    632321.066   6818106.907
10 0 59789  35142.000000  0    1157859.903   -132540.850   6778530.746
10 0 59789  35262.000000  0    1634652.450   -903729.872   6619856.588
10 0 59789  35382.000000  0    2069496.172  -1667127.221   6344852.290
10 0 59789  35502.000000  0    2455053.904  -2408605.386   5958320.358
10 0 59789  35622.000000  0    2785086.814  -3114290.774   5467019.576
10 0 59789  35742.000000  0    3054557.562  -3770825.673   4879552.305
10 0 59789  35862.000000  0    3259709.240  -4365624.937   4206219.822
10 0 59789  35982.000000  0    3398119.485  -4887123.631   3458846.038
10 0 59789  36102.000000  0    3468726.791  -5325008.421   2650571.321
10 0 59789  36222.000000  0    3471829.206  -5670428.511   1795620.467
10 0 59789  36342.000000  0    3409054.294  -5916180.339    909048.372
10 0 59789  36462.000000  0    3283301.713  -6056860.012      6468.863
10 0 59789  36582.000000  0    3098660.733  -6088982.753   -896227.236
10 0 59789  36702.000000  0    2860301.911  -6011063.287  -1783162.578
10 0 59789  36822.000000  0    2574346.806  -5823654.490  -2638759.956
10 0 59789  36942.000000  0    2247720.734  -5529346.352  -3448022.563
10 0 59789  37062.000000  0    1887990.198  -5132723.300  -4196801.285
10 0 59789  37182.000000  0    1503190.455  -4640281.113  -4872040.590
10 0 59789  37302.000000  0    1101649.520  -4060309.289  -5462000.463
10 0 59789  37422.000000  0     691811.384  -3402741.647  -5956452.652
10 0 59789  37542.000000  0     282061.652  -2678978.098  -6346847.559
10 0 59789  37662.000000  0    -119440.377  -1901682.203  -6626450.572
10 0 59789  37782.000000  0    -504919.892  -1084558.229  -6790447.496
10 0 59789  37902.000000  0    -867132.293   -242111.329  -6836019.053
10 0 59789  38022.000000  0   -1199495.333    610605.605  -6762383.273
10 0 59789  38142.000000  0   -1496205.904   1458253.847  -6570806.799
10 0 59789  38262.000000  0   -1752338.930   2285477.911  -6264585.202
10 0 59789  38382.000000  0   -1963928.064   3077177.157  -5848993.569
10 0 59789  38502.000000  0   -2128027.437   3818778.713  -5331205.375
10 0 59789  38622.000000  0   -2242752.499   4496505.485  -4720180.137
10 0 59789  38742.000000  0   -2307300.246   5097636.298  -4026519.417
10 0 59789  38862.000000  0   -2321946.879   5610750.932  -3262291.440
10 0 59789  38982.000000  0   -2288022.584   6025954.895  -2440828.765
10 0 59789  39102.000000  0   -2207864.368   6335081.257  -1576500.593
10 0 59789  39222.000000  0   -2084747.779   6531861.456   -684460.947
10 0 59789  39342.000000  0   -1922798.491   6612060.986    219618.815
10 0 59789  39462.000000  0   -1726885.844   6573579.555   1119831.593
10 0 59789  39582.000000  0   -1502499.658   6416505.271   2000326.450
10 0 59789  39702.000000  0   -1255613.630   6143121.871   2845597.112
10 0 59789  39822.000000  0    -992540.462   5757872.978   3640761.726
10 0 59789  39942.000000  0    -719782.426   5267285.015   4371829.936
10 0 59789  40062.000000  0    -443880.376   4679848.696   5025954.202
10 0 59789  40182.000000  0    -171263.072   4005859.546   5591654.821
10 0 59789  40302.000000  0      91896.006   3257229.807   6059017.172
10 0 59789  40422.000000  0     339812.694   2447269.321   6419861.770
10 0 59789  40542.000000  0     567214.800   1590443.018   6667880.845
10 0 59789  40662.000000  0     769450.921    702108.716   6798742.936
10 0 59789  40782.000000  0     942583.176   -201759.253   6810162.808
10 0 59789  40902.000000  0    1083462.727  -1104855.918   6701939.670
10 0 59789  41022.000000  0    1189786.874  -1990839.600   6475961.168
10 0 59789  41142.000000  0    1260136.828  -2843627.322   6136173.061
10 0 59789  41262.000000  0    1293995.428  -3647688.622   5688514.530
10 0 59789  41382.000000  0    1291744.114  -4388330.808   5140818.434
10 0 59789  41502.000000  0    1254641.017  -5051970.555   4502680.280
10 0 59789  41622.000000  0    1184779.384  -5626390.522   3785296.979
10 0 59789  41742.000000  0    1085027.002  -6100974.737   3001273.309
10 0 59789  41862.000000  0     958947.831  -6466914.030   2164400.158
10 0 59789  41982.000000  0     810706.565  -6717378.814   1289410.326
10 0 59789  42102.000000  0     644959.623  -6847654.965    391714.770
10 0 59789  42222.000000  0     466734.587  -6855239.532   -512877.176
10 0 59789  42342.000000  0     281300.196  -6739888.906  -1408447.256
10 0 59789  42462.000000  0      94032.747  -6503620.065  -2279257.045
10 0 59789  42582.000000  0     -89718.414  -6150667.918  -3110030.637
10 0 59789  42702.000000  0    -264763.522  -5687399.764  -3886226.979
10 0 59789  42822.000000  0    -426199.848  -5122187.871  -4594295.943
10 0 59789  42942.000000  0    -569530.504  -4465244.687  -5221911.294
10 0 59789  43062.000000  0    -690772.088  -3728426.983  -5758178.343
10 0 59789  43182.000000  0    -786548.664  -2925012.617  -6193813.720
10 0 59789  43302.000000  0    -854170.520  -2069455.236  -6521295.172
10 0 59789  43422.000000  0    -891696.572  -1177122.039  -6734979.828
10 0 59789  43542.000000  0    -897979.691   -264019.858  -6831191.682
10 0 59789  43662.000000  0    -872693.767    653487.660  -6808277.664
10 0 59789  43782.000000  0    -816342.315   1558965.882  -6666631.977
10 0 59789  43902.000000  0    -730249.139   2436195.963  -6408690.027
10 0 59789  44022.000000  0    -616530.768   3269458.532  -6038891.983
10 0 59789  44142.000000  0    -478050.637   4043812.512  -5563615.430
10 0 59789  44262.000000  0    -318355.657   4745362.674  -4991075.490
10 0 59789  44382.000000  0    -141596.724   5361512.715  -4331194.661
10 0 59789  44502.000000  0      47565.869   5881199.387  -3595441.103
10 0 59789  44622.000000  0     244070.717   6295101.284  -2796637.367
10 0 59789  44742.000000  0     442575.027   6595818.169  -1948742.547
10 0 59789  44862.000000  0     637583.235   6778016.446  -1066609.994
10 0 59789  44982.000000  0     823581.689   6838535.506   -165724.693
10 0 59789  45102.000000  0     995175.979   6776451.653    738074.346
10 0 59789  45222.000000  0    1147227.244   6593096.452   1628880.576
10 0 59789  45342.000000  0    1274982.683   6292030.067   2491007.992
10 0 59789  45462.000000  0    1374197.956   5878970.839   3309275.021
10 0 59789  45582.000000  0    1441248.944   5361682.197   4069279.494
10 0 59789  45702.000000  0    1473230.305   4749818.585   4757656.840
10 0 59789  45822.000000  0    1468036.784   4054734.640   5362319.437
10 0 59789  45942.000000  0    1424425.059   3289262.394   5872664.685
99
